CCSDS_OMM_VERS = 2.0
CREATION_DATE  = 
ORIGINATOR     = 

OBJECT_NAME    = STARLINK-35335
OBJECT_ID      = 2025-243D
CENTER_NAME    = EARTH
REF_FRAME      = TEME
TIME_SYSTEM    = UTC
MEAN_ELEMENT_THEORY = SGP/SGP4

EPOCH          = 2025-11-14T18:45:19.243008
MEAN_MOTION    = 15.73288680
ECCENTRICITY   = .0001714
INCLINATION    = 53.1582
RA_OF_ASC_NODE = 60.9283
ARG_OF_PERICENTER = 40.1665
MEAN_ANOMALY   = 319.9481

EPHEMERIS_TYPE = 0
CLASSIFICATION_TYPE = U
NORAD_CAT_ID   = 66180
ELEMENT_SET_NO = 999
REV_AT_EPOCH   = 303
BSTAR          = -.19819E-2
MEAN_MOTION_DOT = -.271058E-2
MEAN_MOTION_DDOT = 0

CCSDS_OMM_VERS = 2.0
CREATION_DATE  = 
ORIGINATOR     = 

OBJECT_NAME    = STARLINK-35342
OBJECT_ID      = 2025-243E
CENTER_NAME    = EARTH
REF_FRAME      = TEME
TIME_SYSTEM    = UTC
MEAN_ELEMENT_THEORY = SGP/SGP4

EPOCH          = 2025-11-14T17:14:20.215392
MEAN_MOTION    = 15.73160151
ECCENTRICITY   = .00004
INCLINATION    = 53.1584
RA_OF_ASC_NODE = 61.2462
ARG_OF_PERICENTER = 77.1836
MEAN_ANOMALY   = 282.9228

EPHEMERIS_TYPE = 0
CLASSIFICATION_TYPE = U
NORAD_CAT_ID   = 66181
ELEMENT_SET_NO = 999
REV_AT_EPOCH   = 302
BSTAR          = -.56094E-2
MEAN_MOTION_DOT = -.722199E-2
MEAN_MOTION_DDOT = 0

CCSDS_OMM_VERS = 2.0
CREATION_DATE  = 
ORIGINATOR     = 

OBJECT_NAME    = STARLINK-35333
OBJECT_ID      = 2025-243F
CENTER_NAME    = EARTH
REF_FRAME      = TEME
TIME_SYSTEM    = UTC
MEAN_ELEMENT_THEORY = SGP/SGP4

EPOCH          = 2025-11-14T18:46:20.294112
MEAN_MOTION    = 15.72953400
ECCENTRICITY   = .0000464
INCLINATION    = 53.1583
RA_OF_ASC_NODE = 60.9324
ARG_OF_PERICENTER = 123.0814
MEAN_ANOMALY   = 237.0249

EPHEMERIS_TYPE = 0
CLASSIFICATION_TYPE = U
NORAD_CAT_ID   = 66182
ELEMENT_SET_NO = 999
REV_AT_EPOCH   = 303
BSTAR          = -.55275E-2
MEAN_MOTION_DOT = -.706676E-2
MEAN_MOTION_DDOT = 0

CCSDS_OMM_VERS = 2.0
CREATION_DATE  = 
ORIGINATOR     = 

OBJECT_NAME    = STARLINK-35310
OBJECT_ID      = 2025-243G
CENTER_NAME    = EARTH
REF_FRAME      = TEME
TIME_SYSTEM    = UTC
MEAN_ELEMENT_THEORY = SGP/SGP4

EPOCH          = 2025-11-14T18:46:47.077248
MEAN_MOTION    = 15.73296844
ECCENTRICITY   = .0002851
INCLINATION    = 53.1578
RA_OF_ASC_NODE = 60.9357
ARG_OF_PERICENTER = 17.7947
MEAN_ANOMALY   = 342.3172

EPHEMERIS_TYPE = 0
CLASSIFICATION_TYPE = U
NORAD_CAT_ID   = 66183
ELEMENT_SET_NO = 999
REV_AT_EPOCH   = 303
BSTAR          = -.1969E-2
MEAN_MOTION_DOT = -.269519E-2
MEAN_MOTION_DDOT = 0

CCSDS_OMM_VERS = 2.0
CREATION_DATE  = 
ORIGINATOR     = 

OBJECT_NAME    = STARLINK-35317
OBJECT_ID      = 2025-243H
CENTER_NAME    = EARTH
REF_FRAME      = TEME
TIME_SYSTEM    = UTC
MEAN_ELEMENT_THEORY = SGP/SGP4

EPOCH          = 2025-11-14T14:17:12.388992
MEAN_MOTION    = 15.73541045
ECCENTRICITY   = .0000738
INCLINATION    = 53.1581
RA_OF_ASC_NODE = 61.9038
ARG_OF_PERICENTER = 88.5486
MEAN_ANOMALY   = 271.5618

EPHEMERIS_TYPE = 0
CLASSIFICATION_TYPE = U
NORAD_CAT_ID   = 66184
ELEMENT_SET_NO = 999
REV_AT_EPOCH   = 300
BSTAR          = -.54157E-2
MEAN_MOTION_DOT = -.709945E-2
MEAN_MOTION_DDOT = 0

CCSDS_OMM_VERS = 2.0
CREATION_DATE  = 
ORIGINATOR     = 

OBJECT_NAME    = STARLINK-35377
OBJECT_ID      = 2025-243J
CENTER_NAME    = EARTH
REF_FRAME      = TEME
TIME_SYSTEM    = UTC
MEAN_ELEMENT_THEORY = SGP/SGP4

EPOCH          = 2025-11-14T18:52:37.359264
MEAN_MOTION    = 15.73314588
ECCENTRICITY   = .0000568
INCLINATION    = 53.1576
RA_OF_ASC_NODE = 60.9631
ARG_OF_PERICENTER = 22.9160
MEAN_ANOMALY   = 337.1884

EPHEMERIS_TYPE = 0
CLASSIFICATION_TYPE = U
NORAD_CAT_ID   = 66185
ELEMENT_SET_NO = 999
REV_AT_EPOCH   = 303
BSTAR          = -.14073E-2
MEAN_MOTION_DOT = -.194571E-2
MEAN_MOTION_DDOT = 0

CCSDS_OMM_VERS = 2.0
CREATION_DATE  = 
ORIGINATOR     = 

OBJECT_NAME    = STARLINK-35365
OBJECT_ID      = 2025-243K
CENTER_NAME    = EARTH
REF_FRAME      = TEME
TIME_SYSTEM    = UTC
MEAN_ELEMENT_THEORY = SGP/SGP4

EPOCH          = 2025-11-14T17:22:07.540032
MEAN_MOTION    = 15.73113557
ECCENTRICITY   = .0000417
INCLINATION    = 53.1576
RA_OF_ASC_NODE = 61.2839
ARG_OF_PERICENTER = 98.9812
MEAN_ANOMALY   = 261.1254

EPHEMERIS_TYPE = 0
CLASSIFICATION_TYPE = U
NORAD_CAT_ID   = 66186
ELEMENT_SET_NO = 999
REV_AT_EPOCH   = 302
BSTAR          = -.62936E-2
MEAN_MOTION_DOT = -.800994E-2
MEAN_MOTION_DDOT = 0

CCSDS_OMM_VERS = 2.0
CREATION_DATE  = 
ORIGINATOR     = 

OBJECT_NAME    = STARLINK-35350
OBJECT_ID      = 2025-243L
CENTER_NAME    = EARTH
REF_FRAME      = TEME
TIME_SYSTEM    = UTC
MEAN_ELEMENT_THEORY = SGP/SGP4

EPOCH          = 2025-11-14T18:53:09.117312
MEAN_MOTION    = 15.73051531
ECCENTRICITY   = .0001552
INCLINATION    = 53.1579
RA_OF_ASC_NODE = 60.9663
ARG_OF_PERICENTER = 55.0118
MEAN_ANOMALY   = 305.1047

EPHEMERIS_TYPE = 0
CLASSIFICATION_TYPE = U
NORAD_CAT_ID   = 66187
ELEMENT_SET_NO = 999
REV_AT_EPOCH   = 303
BSTAR          = -.34756E-2
MEAN_MOTION_DOT = -.459772E-2
MEAN_MOTION_DDOT = 0

CCSDS_OMM_VERS = 2.0
CREATION_DATE  = 
ORIGINATOR     = 

OBJECT_NAME    = STARLINK-35041
OBJECT_ID      = 2025-243M
CENTER_NAME    = EARTH
REF_FRAME      = TEME
TIME_SYSTEM    = UTC
MEAN_ELEMENT_THEORY = SGP/SGP4

EPOCH          = 2025-11-14T18:51:09.855072
MEAN_MOTION    = 15.73295315
ECCENTRICITY   = .0001486
INCLINATION    = 53.1575
RA_OF_ASC_NODE = 60.9573
ARG_OF_PERICENTER = 23.9111
MEAN_ANOMALY   = 336.1977

EPHEMERIS_TYPE = 0
CLASSIFICATION_TYPE = U
NORAD_CAT_ID   = 66188
ELEMENT_SET_NO = 999
REV_AT_EPOCH   = 303
BSTAR          = -.1688E-2
MEAN_MOTION_DOT = -.232072E-2
MEAN_MOTION_DDOT = 0

CCSDS_OMM_VERS = 2.0
CREATION_DATE  = 
ORIGINATOR     = 

OBJECT_NAME    = STARLINK-34694
OBJECT_ID      = 2025-243N
CENTER_NAME    = EARTH
REF_FRAME      = TEME
TIME_SYSTEM    = UTC
MEAN_ELEMENT_THEORY = SGP/SGP4

EPOCH          = 2025-11-14T14:15:44.368128
MEAN_MOTION    = 15.73593578
ECCENTRICITY   = .0000707
INCLINATION    = 53.1574
RA_OF_ASC_NODE = 61.8969
ARG_OF_PERICENTER = 132.1657
MEAN_ANOMALY   = 227.9423

EPHEMERIS_TYPE = 0
CLASSIFICATION_TYPE = U
NORAD_CAT_ID   = 66189
ELEMENT_SET_NO = 999
REV_AT_EPOCH   = 300
BSTAR          = -.45486E-2
MEAN_MOTION_DOT = -.605185E-2
MEAN_MOTION_DDOT = 0

CCSDS_OMM_VERS = 2.0
CREATION_DATE  = 
ORIGINATOR     = 

OBJECT_NAME    = STARLINK-34863
OBJECT_ID      = 2025-243P
CENTER_NAME    = EARTH
REF_FRAME      = TEME
TIME_SYSTEM    = UTC
MEAN_ELEMENT_THEORY = SGP/SGP4

EPOCH          = 2025-11-14T18:52:08.366016
MEAN_MOTION    = 15.73291397
ECCENTRICITY   = .0001633
INCLINATION    = 53.1582
RA_OF_ASC_NODE = 60.9604
ARG_OF_PERICENTER = 41.0658
MEAN_ANOMALY   = 319.0484

EPHEMERIS_TYPE = 0
CLASSIFICATION_TYPE = U
NORAD_CAT_ID   = 66190
ELEMENT_SET_NO = 999
REV_AT_EPOCH   = 303
BSTAR          = -.17918E-2
MEAN_MOTION_DOT = -.245869E-2
MEAN_MOTION_DDOT = 0

CCSDS_OMM_VERS = 2.0
CREATION_DATE  = 
ORIGINATOR     = 

OBJECT_NAME    = STARLINK-35061
OBJECT_ID      = 2025-243Q
CENTER_NAME    = EARTH
REF_FRAME      = TEME
TIME_SYSTEM    = UTC
MEAN_ELEMENT_THEORY = SGP/SGP4

EPOCH          = 2025-11-14T18:00:02.998944
MEAN_MOTION    = 15.72544855
ECCENTRICITY   = .00014
INCLINATION    = 53.1587
RA_OF_ASC_NODE = 61.1030
ARG_OF_PERICENTER = 69.1589
MEAN_ANOMALY   = 105.0060

EPHEMERIS_TYPE = 0
CLASSIFICATION_TYPE = U
NORAD_CAT_ID   = 66191
ELEMENT_SET_NO = 999
REV_AT_EPOCH   = 413
BSTAR          = -.15935E-1
MEAN_MOTION_DOT = -.189136E-1
MEAN_MOTION_DDOT = 0

