STARLINK-35335          
1 66180U 25243D   25318.78147272 -.00271058  00000+0 -19819-2 0  9998
2 66180  53.1582  60.9283 0001714  40.1665 319.9481 15.73288680  3039
STARLINK-35342          
1 66181U 25243E   25318.71828953 -.00722199  00000+0 -56094-2 0  9997
2 66181  53.1584  61.2462 0000400  77.1836 282.9228 15.73160151  3025
STARLINK-35333          
1 66182U 25243F   25318.78217933 -.00706676  00000+0 -55275-2 0  9997
2 66182  53.1583  60.9324 0000464 123.0814 237.0249 15.72953400  3036
STARLINK-35310          
1 66183U 25243G   25318.78248932 -.00269519  00000+0 -19690-2 0  9992
2 66183  53.1578  60.9357 0002851  17.7947 342.3172 15.73296844  3033
STARLINK-35317          
1 66184U 25243H   25318.59528228 -.00709945  00000+0 -54157-2 0  9990
2 66184  53.1581  61.9038 0000738  88.5486 271.5618 15.73541045  3002
STARLINK-35377          
1 66185U 25243J   25318.78654351 -.00194571  00000+0 -14073-2 0  9995
2 66185  53.1576  60.9631 0000568  22.9160 337.1884 15.73314588  3034
STARLINK-35365          
1 66186U 25243K   25318.72369838 -.00800994  00000+0 -62936-2 0  9997
2 66186  53.1576  61.2839 0000417  98.9812 261.1254 15.73113557  3028
STARLINK-35350          
1 66187U 25243L   25318.78691108 -.00459772  00000+0 -34756-2 0  9995
2 66187  53.1579  60.9663 0001552  55.0118 305.1047 15.73051531  3030
STARLINK-35041          
1 66188U 25243M   25318.78553073 -.00232072  00000+0 -16880-2 0  9994
2 66188  53.1575  60.9573 0001486  23.9111 336.1977 15.73295315  3036
STARLINK-34694          
1 66189U 25243N   25318.59426352 -.00605185  00000+0 -45486-2 0  9996
2 66189  53.1574  61.8969 0000707 132.1657 227.9423 15.73593578  3000
STARLINK-34863          
1 66190U 25243P   25318.78620794 -.00245869  00000+0 -17918-2 0  9993
2 66190  53.1582  60.9604 0001633  41.0658 319.0484 15.73291397  3032
STARLINK-35061          
1 66191U 25243Q   25318.75003471 -.01891360  00000+0 -15935-1 0  9998
2 66191  53.1587  61.1030 0001400  69.1589 105.0060 15.72544855  4134
